WORLDVIEW-3 (WV-3)      
1 40115U 14048A   26095.79787103  .00001397  00000+0  17048-3 0  9994
2 40115  97.8594 171.6271 0001924 142.1319 218.0031 14.84901954631164
GAOFEN-2                
1 40118U 14049A   26095.87703229  .00001394  00000+0  18762-3 0  9995
2 40118  98.0168 160.1362 0008745 104.8627 255.3554 14.80817884628531
YAOGAN-21               
1 40143U 14053A   26095.82805509  .00008301  00000+0  33120-3 0  9997
2 40143  97.1559 139.1938 0007999   2.2323 357.8950 15.25383668643928
YAOGAN-22               
1 40275U 14063A   26095.86111239 -.00000040  00000+0  16948-4 0  9991
2 40275 100.7601 245.9631 0006137 358.3740   1.7350 13.15528492550301
ASNARO                  
1 40298U 14070A   26095.85479828  .00010663  00000+0  49863-3 0  9996
2 40298  97.3476 173.9062 0006914  81.1362 279.0656 15.19924495633028
YAOGAN-24               
1 40310U 14072A   26095.89267997  .00001958  00000+0  29074-3 0  9998
2 40310  98.1366 232.6680 0014892 131.5194 228.7296 14.76129900613058
CBERS 4                 
1 40336U 14079A   26095.82658438  .00000197  00000+0  83067-4 0  9997
2 40336  98.3421 154.9630 0000424 136.9778 223.1442 14.35575851593575
YAOGAN-26               
1 40362U 14088A   26095.89531245  .00032114  00000+0  69068-3 0  9997
2 40362  97.0666  97.9469 0002921 346.2434  13.8735 15.44584570626537
SMAP                    
1 40376U 15003A   26095.87512764  .00000690  00000+0  14261-3 0  9992
2 40376  98.1307 103.9850 0001923  93.3432 266.7990 14.63375346597041
KOMPSAT-3A              
1 40536U 15014A   26095.91210288  .00035882  00000+0  58189-3 0  9991
2 40536  97.6894  82.1939 0063452  81.3202 279.5230 15.50349523610609
SENTINEL-2A             
1 40697U 15028A   26095.83711785  .00000156  00000+0  76230-4 0  9997
2 40697  98.5642 171.7308 0001335  91.8952 268.2383 14.30817650563387
GAOFEN-8                
1 40701U 15030A   26095.85644049  .00022493  00000+0  50228-3 0  9992
2 40701  97.6934 285.0173 0010385  95.5318 264.7113 15.43495643600280
CARBONITE 1 (CBNT-1)    
1 40718U 15032D   26095.80771275  .00004006  00000+0  49385-3 0  9991
2 40718  97.6486 276.9242 0014766 166.6158 193.5451 14.83361885578613
YAOGAN-27               
1 40878U 15040A   26095.88477257 -.00000269  00000+0 -59573-3 0  9997
2 40878 100.1130  85.4165 0008580  25.9432 334.2111 13.16065217508156
GAOFEN-9 01             
1 40894U 15047A   26095.85818127  .00001551  00000+0  19708-3 0  9993
2 40894  97.6365 134.8154 0027859  20.5957 339.6373 14.82754792569472
YAOGAN-28               
1 41026U 15064A   26095.84405981  .00010095  00000+0  38846-3 0  9996
2 41026  97.2961 235.6773 0012290  88.4204 271.8443 15.26504863579642
YAOGAN-29               
1 41038U 15069A   26095.85053652  .00000877  00000+0  11456-3 0  9994
2 41038  98.0099 124.3480 0000183 157.4555 202.6666 14.83028945559909
