[{"OBJECT_NAME":"WORLDVIEW-3 (WV-3)","OBJECT_ID":"2014-048A","EPOCH":"2026-04-05T19:08:56.056992","MEAN_MOTION":14.84901954,"ECCENTRICITY":0.0001924,"INCLINATION":97.8594,"RA_OF_ASC_NODE":171.6271,"ARG_OF_PERICENTER":142.1319,"MEAN_ANOMALY":218.0031,"EPHEMERIS_TYPE":0,"CLASSIFICATION_TYPE":"U","NORAD_CAT_ID":40115,"ELEMENT_SET_NO":999,"REV_AT_EPOCH":63116,"BSTAR":0.00017048,"MEAN_MOTION_DOT":1.397e-5,"MEAN_MOTION_DDOT":0},{"OBJECT_NAME":"GAOFEN-2","OBJECT_ID":"2014-049A","EPOCH":"2026-04-05T21:02:55.589856","MEAN_MOTION":14.80817884,"ECCENTRICITY":0.0008745,"INCLINATION":98.0168,"RA_OF_ASC_NODE":160.1362,"ARG_OF_PERICENTER":104.8627,"MEAN_ANOMALY":255.3554,"EPHEMERIS_TYPE":0,"CLASSIFICATION_TYPE":"U","NORAD_CAT_ID":40118,"ELEMENT_SET_NO":999,"REV_AT_EPOCH":62853,"BSTAR":0.00018762,"MEAN_MOTION_DOT":1.394e-5,"MEAN_MOTION_DDOT":0},{"OBJECT_NAME":"YAOGAN-21","OBJECT_ID":"2014-053A","EPOCH":"2026-04-05T19:52:23.959776","MEAN_MOTION":15.25383668,"ECCENTRICITY":0.0007999,"INCLINATION":97.1559,"RA_OF_ASC_NODE":139.1938,"ARG_OF_PERICENTER":2.2323,"MEAN_ANOMALY":357.895,"EPHEMERIS_TYPE":0,"CLASSIFICATION_TYPE":"U","NORAD_CAT_ID":40143,"ELEMENT_SET_NO":999,"REV_AT_EPOCH":64392,"BSTAR":0.0003312,"MEAN_MOTION_DOT":8.301e-5,"MEAN_MOTION_DDOT":0},{"OBJECT_NAME":"YAOGAN-22","OBJECT_ID":"2014-063A","EPOCH":"2026-04-05T20:40:00.110496","MEAN_MOTION":13.15528492,"ECCENTRICITY":0.0006137,"INCLINATION":100.7601,"RA_OF_ASC_NODE":245.9631,"ARG_OF_PERICENTER":358.374,"MEAN_ANOMALY":1.735,"EPHEMERIS_TYPE":0,"CLASSIFICATION_TYPE":"U","NORAD_CAT_ID":40275,"ELEMENT_SET_NO":999,"REV_AT_EPOCH":55030,"BSTAR":1.6948e-5,"MEAN_MOTION_DOT":-4.0e-7,"MEAN_MOTION_DDOT":0},{"OBJECT_NAME":"ASNARO","OBJECT_ID":"2014-070A","EPOCH":"2026-04-05T20:30:54.571392","MEAN_MOTION":15.19924495,"ECCENTRICITY":0.0006914,"INCLINATION":97.3476,"RA_OF_ASC_NODE":173.9062,"ARG_OF_PERICENTER":81.1362,"MEAN_ANOMALY":279.0656,"EPHEMERIS_TYPE":0,"CLASSIFICATION_TYPE":"U","NORAD_CAT_ID":40298,"ELEMENT_SET_NO":999,"REV_AT_EPOCH":63302,"BSTAR":0.00049863,"MEAN_MOTION_DOT":0.00010663,"MEAN_MOTION_DDOT":0},{"OBJECT_NAME":"YAOGAN-24","OBJECT_ID":"2014-072A","EPOCH":"2026-04-05T21:25:27.549408","MEAN_MOTION":14.761299,"ECCENTRICITY":0.0014892,"INCLINATION":98.1366,"RA_OF_ASC_NODE":232.668,"ARG_OF_PERICENTER":131.5194,"MEAN_ANOMALY":228.7296,"EPHEMERIS_TYPE":0,"CLASSIFICATION_TYPE":"U","NORAD_CAT_ID":40310,"ELEMENT_SET_NO":999,"REV_AT_EPOCH":61305,"BSTAR":0.00029074,"MEAN_MOTION_DOT":1.958e-5,"MEAN_MOTION_DDOT":0},{"OBJECT_NAME":"CBERS 4","OBJECT_ID":"2014-079A","EPOCH":"2026-04-05T19:50:16.890432","MEAN_MOTION":14.35575851,"ECCENTRICITY":4.24e-5,"INCLINATION":98.3421,"RA_OF_ASC_NODE":154.963,"ARG_OF_PERICENTER":136.9778,"MEAN_ANOMALY":223.1442,"EPHEMERIS_TYPE":0,"CLASSIFICATION_TYPE":"U","NORAD_CAT_ID":40336,"ELEMENT_SET_NO":999,"REV_AT_EPOCH":59357,"BSTAR":8.3067e-5,"MEAN_MOTION_DOT":1.97e-6,"MEAN_MOTION_DDOT":0},{"OBJECT_NAME":"YAOGAN-26","OBJECT_ID":"2014-088A","EPOCH":"2026-04-05T21:29:14.995680","MEAN_MOTION":15.4458457,"ECCENTRICITY":0.0002921,"INCLINATION":97.0666,"RA_OF_ASC_NODE":97.9469,"ARG_OF_PERICENTER":346.2434,"MEAN_ANOMALY":13.8735,"EPHEMERIS_TYPE":0,"CLASSIFICATION_TYPE":"U","NORAD_CAT_ID":40362,"ELEMENT_SET_NO":999,"REV_AT_EPOCH":62653,"BSTAR":0.00069068,"MEAN_MOTION_DOT":0.00032114,"MEAN_MOTION_DDOT":0},{"OBJECT_NAME":"SMAP","OBJECT_ID":"2015-003A","EPOCH":"2026-04-05T21:00:11.028096","MEAN_MOTION":14.63375346,"ECCENTRICITY":0.0001923,"INCLINATION":98.1307,"RA_OF_ASC_NODE":103.985,"ARG_OF_PERICENTER":93.3432,"MEAN_ANOMALY":266.799,"EPHEMERIS_TYPE":0,"CLASSIFICATION_TYPE":"U","NORAD_CAT_ID":40376,"ELEMENT_SET_NO":999,"REV_AT_EPOCH":59704,"BSTAR":0.00014261,"MEAN_MOTION_DOT":6.9e-6,"MEAN_MOTION_DDOT":0},{"OBJECT_NAME":"KOMPSAT-3A","OBJECT_ID":"2015-014A","EPOCH":"2026-04-05T21:53:25.688832","MEAN_MOTION":15.50349523,"ECCENTRICITY":0.0063452,"INCLINATION":97.6894,"RA_OF_ASC_NODE":82.1939,"ARG_OF_PERICENTER":81.3202,"MEAN_ANOMALY":279.523,"EPHEMERIS_TYPE":0,"CLASSIFICATION_TYPE":"U","NORAD_CAT_ID":40536,"ELEMENT_SET_NO":999,"REV_AT_EPOCH":61060,"BSTAR":0.00058189,"MEAN_MOTION_DOT":0.00035882,"MEAN_MOTION_DDOT":0},{"OBJECT_NAME":"SENTINEL-2A","OBJECT_ID":"2015-028A","EPOCH":"2026-04-05T20:05:26.982240","MEAN_MOTION":14.3081765,"ECCENTRICITY":0.0001335,"INCLINATION":98.5642,"RA_OF_ASC_NODE":171.7308,"ARG_OF_PERICENTER":91.8952,"MEAN_ANOMALY":268.2383,"EPHEMERIS_TYPE":0,"CLASSIFICATION_TYPE":"U","NORAD_CAT_ID":40697,"ELEMENT_SET_NO":999,"REV_AT_EPOCH":56338,"BSTAR":7.623e-5,"MEAN_MOTION_DOT":1.56e-6,"MEAN_MOTION_DDOT":0},{"OBJECT_NAME":"GAOFEN-8","OBJECT_ID":"2015-030A","EPOCH":"2026-04-05T20:33:16.458336","MEAN_MOTION":15.43495643,"ECCENTRICITY":0.0010385,"INCLINATION":97.6934,"RA_OF_ASC_NODE":285.0173,"ARG_OF_PERICENTER":95.5318,"MEAN_ANOMALY":264.7113,"EPHEMERIS_TYPE":0,"CLASSIFICATION_TYPE":"U","NORAD_CAT_ID":40701,"ELEMENT_SET_NO":999,"REV_AT_EPOCH":60028,"BSTAR":0.00050228,"MEAN_MOTION_DOT":0.00022493,"MEAN_MOTION_DDOT":0},{"OBJECT_NAME":"CARBONITE 1 (CBNT-1)","OBJECT_ID":"2015-032D","EPOCH":"2026-04-05T19:23:06.381600","MEAN_MOTION":14.83361885,"ECCENTRICITY":0.0014766,"INCLINATION":97.6486,"RA_OF_ASC_NODE":276.9242,"ARG_OF_PERICENTER":166.6158,"MEAN_ANOMALY":193.5451,"EPHEMERIS_TYPE":0,"CLASSIFICATION_TYPE":"U","NORAD_CAT_ID":40718,"ELEMENT_SET_NO":999,"REV_AT_EPOCH":57861,"BSTAR":0.00049385,"MEAN_MOTION_DOT":4.006e-5,"MEAN_MOTION_DDOT":0},{"OBJECT_NAME":"YAOGAN-27","OBJECT_ID":"2015-040A","EPOCH":"2026-04-05T21:14:04.350048","MEAN_MOTION":13.16065217,"ECCENTRICITY":0.000858,"INCLINATION":100.113,"RA_OF_ASC_NODE":85.4165,"ARG_OF_PERICENTER":25.9432,"MEAN_ANOMALY":334.2111,"EPHEMERIS_TYPE":0,"CLASSIFICATION_TYPE":"U","NORAD_CAT_ID":40878,"ELEMENT_SET_NO":999,"REV_AT_EPOCH":50815,"BSTAR":-0.00059573,"MEAN_MOTION_DOT":-2.69e-6,"MEAN_MOTION_DDOT":0},{"OBJECT_NAME":"GAOFEN-9 01","OBJECT_ID":"2015-047A","EPOCH":"2026-04-05T20:35:46.861728","MEAN_MOTION":14.82754792,"ECCENTRICITY":0.0027859,"INCLINATION":97.6365,"RA_OF_ASC_NODE":134.8154,"ARG_OF_PERICENTER":20.5957,"MEAN_ANOMALY":339.6373,"EPHEMERIS_TYPE":0,"CLASSIFICATION_TYPE":"U","NORAD_CAT_ID":40894,"ELEMENT_SET_NO":999,"REV_AT_EPOCH":56947,"BSTAR":0.00019708,"MEAN_MOTION_DOT":1.551e-5,"MEAN_MOTION_DDOT":0},{"OBJECT_NAME":"YAOGAN-28","OBJECT_ID":"2015-064A","EPOCH":"2026-04-05T20:15:26.767584","MEAN_MOTION":15.26504863,"ECCENTRICITY":0.001229,"INCLINATION":97.2961,"RA_OF_ASC_NODE":235.6773,"ARG_OF_PERICENTER":88.4204,"MEAN_ANOMALY":271.8443,"EPHEMERIS_TYPE":0,"CLASSIFICATION_TYPE":"U","NORAD_CAT_ID":41026,"ELEMENT_SET_NO":999,"REV_AT_EPOCH":57964,"BSTAR":0.00038846,"MEAN_MOTION_DOT":0.00010095,"MEAN_MOTION_DDOT":0},{"OBJECT_NAME":"YAOGAN-29","OBJECT_ID":"2015-069A","EPOCH":"2026-04-05T20:24:46.355328","MEAN_MOTION":14.83028945,"ECCENTRICITY":1.83e-5,"INCLINATION":98.0099,"RA_OF_ASC_NODE":124.348,"ARG_OF_PERICENTER":157.4555,"MEAN_ANOMALY":202.6666,"EPHEMERIS_TYPE":0,"CLASSIFICATION_TYPE":"U","NORAD_CAT_ID":41038,"ELEMENT_SET_NO":999,"REV_AT_EPOCH":55990,"BSTAR":0.00011456,"MEAN_MOTION_DOT":8.77e-6,"MEAN_MOTION_DDOT":0}]
